TELKOM 3S               
1 41944U 17007A   25107.55735101 -.00000353  00000+0  00000+0 0  9999
2 41944   0.0182 236.6061 0002449 162.1418 125.8246  1.00269873 29871
INTELSAT 32E (IS-32E)   
1 41945U 17007B   25107.22058356 -.00000259  00000+0  00000+0 0  9999
2 41945   0.0243 111.8584 0000874 279.0539 210.9144  1.00269991 29959
ECHOSTAR 23             
1 42070U 17014A   25107.51217322 -.00000047  00000+0  00000+0 0  9994
2 42070   0.0181 226.3148 0001995 160.0939 253.9655  1.00271466 29657
WGS F9 (USA 275)        
1 42075U 17016A   25107.38876179 -.00000087  00000+0  00000+0 0  9991
2 42075   0.0173 252.1506 0000296 123.4466 318.1415  1.00266398 29622
SES-10                  
1 42432U 17017A   25107.55461387 -.00000263  00000+0  00000+0 0  9995
2 42432   0.0169 281.9987 0002970 118.3717 298.3189  1.00271073 29476
CHINASAT 16 (SJ-13)     
1 42662U 17018A   25107.55587404 -.00000343  00000+0  00000+0 0  9999
2 42662   0.0427  81.0230 0004161 174.3169 261.2322  1.00269705 29472
KOREASAT 7              
1 42691U 17023A   25107.41413086 -.00000352  00000+0  00000+0 0  9996
2 42691   0.0334  14.9539 0001232  30.4742  65.3292  1.00269933 29105
SGDC                    
1 42692U 17023B   25106.63848285 -.00000239  00000+0  00000+0 0  9997
2 42692   0.0441  70.0756 0003025 333.8342 316.1209  1.00271767 29133
GSAT-9                  
1 42695U 17024A   25107.55326764 -.00000276  00000+0  00000+0 0  9997
2 42695   0.0469  90.2325 0002417 289.5427 122.6478  1.00268587 29030
INMARSAT 5-F4           
1 42698U 17025A   25107.18814012  .00000085  00000+0  00000+0 0  9995
2 42698   0.0084 224.6553 0000729 165.4267 299.7337  1.00273437 29007
SES-15                  
1 42709U 17026A   25107.07996050  .00000069  00000+0  00000+0 0  9992
2 42709   0.0292  29.6640 0000761 324.3671 111.0606  1.00278999  3175
QZS-2 (MICHIBIKI-2)     
1 42738U 17028A   25107.27389104 -.00000187  00000+0  00000+0 0  9996
2 42738  40.0892 249.3624 0740588 270.6596 282.9762  1.00251395  3359
VIASAT-2                
1 42740U 17029A   25107.55461387 -.00000255  00000+0  00000+0 0  9991
2 42740   0.0132 253.9003 0000473 154.0828 287.7176  1.00270972 28937
EUTELSAT 172B           
1 42741U 17029B   25107.53308905  .00000004  00000+0  00000+0 0  9997
2 42741   0.0104 204.6338 0000304 256.2723 108.9199  1.00271330 29460
GSAT-19                 
1 42747U 17031A   25107.51364065  .00000135  00000+0  00000+0 0  9998
2 42747   0.0642  87.6729 0004249 353.1367 357.8615  1.00271822 28866
ECHOSTAR 21             
1 42749U 17032A   25107.53589157  .00000074  00000+0  00000+0 0  9996
2 42749   2.0687 330.8622 0002528  58.4966  19.7261  1.00273109 28830
BULGARIASAT-1           
1 42801U 17038A   25107.40600334  .00000021  00000+0  00000+0 0  9990
2 42801   0.0125 221.0087 0003393 186.6060 306.2404  1.00269947 28568
HELLAS-SAT 3            
1 42814U 17040A   25107.56711427  .00000162  00000+0  00000+0 0  9996
2 42814   0.0437  48.7606 0005358 335.4870  64.8450  1.00269568 28540
GSAT-17                 
1 42815U 17040B   25107.33835337 -.00000248  00000+0  00000+0 0  9995
2 42815   0.0816  84.5526 0003110 226.1647 110.3000  1.00272785 28513
INTELSAT 35E (IS-35E)   
1 42818U 17041A   25107.53794885 -.00000228  00000+0  00000+0 0  9991
2 42818   0.0161 195.0195 0002033 196.5911 333.4760  1.00271815 28543
COSMOS 2520             
1 42907U 17046A   25107.56711427  .00000146  00000+0  00000+0 0  9997
2 42907   0.0288 106.8584 0000601 358.1026 350.1334  1.00271731 28131
TDRS 13                 
1 42915U 17047A   25107.38884868 -.00000092  00000+0  00000+0 0  9998
2 42915   3.4674 351.7976 0014307 103.3460 239.0475  1.00271946 28074
QZS-3 (MICHIBIKI-3)     
1 42917U 17048A   25107.55917550 -.00000338  00000+0  00000+0 0  9998
2 42917   0.0628 148.5233 0002743 251.0162 134.7208  1.00273778 27997
AMAZONAS 5              
1 42934U 17053A   25107.37903119 -.00000272  00000+0  00000+0 0  9996
2 42934   0.0377 314.3859 0004483  46.9038 279.9083  1.00271686 27775
ASIASAT 9               
1 42942U 17057A   25107.03031093 -.00000350  00000+0  00000+0 0  9992
2 42942   0.0138 247.9761 0002083 139.0317 311.4143  1.00273366 27585
INTELSAT 37E (IS-37E)   
1 42950U 17059A   25107.03052557 -.00000131  00000+0  00000+0 0  9998
2 42950   0.0161 237.2459 0002382 177.1185 144.0154  1.00269379 27798
BSAT-4A                 
1 42951U 17059B   25107.41300141 -.00000341  00000+0  00000+0 0  9999
2 42951   0.1063  68.7407 0004617 332.0361  63.5363  1.00271273 27537
QZS-4 (MICHIBIKI-4)     
1 42965U 17062A   25107.35047858 -.00000306  00000+0  00000+0 0  9995
2 42965  40.3596 348.9185 0746656 270.5070 212.2936  1.00269759 27540
SES-11 (ECHOSTAR 105)   
1 42967U 17063A   25107.51312890 -.00000079  00000+0  00000+0 0  9994
2 42967   0.0197 298.2811 0002275 105.5696 241.8361  1.00272243 27450
KOREASAT 5A             
1 42984U 17067A   25107.55639532 -.00000349  00000+0  00000+0 0  9996
2 42984   0.0143 277.0399 0001403 132.3733 109.9664  1.00270656 27263
ALCOMSAT 1              
1 43039U 17078A   25107.38624227 -.00000176  00000+0  00000+0 0  9994
2 43039   0.0213 133.1975 0001366 234.6090 312.2199  1.00272452 27027
SBIRS GEO-3 (USA 282)   
1 43162U 18009A   25107.50235573  .00000137  00000+0  00000+0 0  9998
2 43162   2.1170 349.8128 0002315  35.9289 201.5822  1.00272747 26571
AL YAH 3                
1 43174U 18012A   25107.38719795 -.00000145  00000+0  00000+0 0  9994
2 43174   0.4482  88.4174 0004620 303.6325 293.0064  1.00272227 26572
SES-14                  
1 43175U 18012B   25107.38172448 -.00000268  00000+0  00000+0 0  9999
2 43175   0.0282  24.1525 0000993  15.0290 256.5042  1.00272004  2755
GOES 17                 
1 43226U 18022A   25107.51321579 -.00000083  00000+0  00000+0 0  9998
2 43226   0.0214 300.1249 0002501 146.1541 199.9867  1.00272596 26150
HISPASAT 30W-6          
1 43228U 18023A   25107.38519970 -.00000206  00000+0  00000+0 0  9997
2 43228   0.0538  48.3279 0006080 350.1431 275.9462  1.00271624 26131
SUPERBIRD-B3            
1 43271U 18033A   25107.60850896 -.00000083  00000+0  00000+0 0  9999
2 43271   0.0145 255.9919 0000999 143.8337 187.2073  1.00270924 25791
HYLAS 4                 
1 43272U 18033B   25107.38450465 -.00000223  00000+0  00000+0 0  9999
2 43272   0.0640 268.3437 0001751 147.2553 255.0367  1.00272099 25807
IRNSS-1I                
1 43286U 18035A   25105.97785733  .00000104  00000+0  00000+0 0  9995
2 43286  29.0029  80.8547 0019721 188.3489 342.2560  1.00270753 25790
USA 283                 
1 43339U 18036A   25104.49004580 -.00000309  00000+0  00000+0 0  9993
2 43339   0.0224 228.6793 0000289 211.7730  72.9632  1.00268958 20997
COSMOS 2526             
1 43432U 18037A   25107.41656351 -.00000335  00000+0  00000+0 0  9991
2 43432   0.0262 126.5859 0000290 215.8565 141.3779  1.00271655 25700
APSTAR-6C               
1 43450U 18041A   25107.41777983 -.00000308  00000+0  00000+0 0  9991
2 43450   0.0417 320.3944 0001512  20.2734 149.5453  1.00272824 25545
BANGABANDHUSAT-1        
1 43463U 18044A   25107.55761164 -.00000353  00000+0  00000+0 0  9997
2 43463   0.0155 231.0987 0002680 159.5858 135.0779  1.00270040 25441
SES-12                  
1 43488U 18049A   25107.37614300 -.00000260  00000+0  00000+0 0  9995
2 43488   0.0403  58.8322 0001396 260.6574 116.6803  1.00273095 25147
FENGYUN 2H              
1 43491U 18050A   25107.54970554 -.00000120  00000+0  00000+0 0  9991
2 43491   1.9325  84.0481 0000197 139.1883 259.9305  1.00272957 25179
BEIDOU-2 IGSO-7         
1 43539U 18057A   25098.82663097 -.00000134  00000+0  00000+0 0  9997
2 43539  55.1567 166.8230 0087417 235.7847 205.5705  1.00278306 24775
TELSTAR 19V             
1 43562U 18059A   25107.52146942 -.00000270  00000+0  00000+0 0  9999
2 43562   0.0192 188.2270 0001873 257.5951 244.7947  1.00270789 24877
TELKOM 4 (MERAH PUTIH)  
1 43587U 18064A   25107.55535277 -.00000334  00000+0  00000+0 0  9999
2 43587   0.0111 227.8824 0001963 198.0734  87.8890  1.00267565 24611
TELSTAR 18V             
1 43611U 18069A   25107.56134750 -.00000284  00000+0  00000+0 0  9998
2 43611   0.0155 263.1867 0002150 130.1395 152.7011  1.00270951 24368
AZERSPACE 2 (IS-38)     
1 43632U 18074A   25107.56711427  .00000146  00000+0  00000+0 0  9995
2 43632   0.0177 239.7161 0001922 145.2261  70.2605  1.00272110 24177
HORIZONS-3E             
1 43633U 18074B   25107.56751601 -.00000021  00000+0  00000+0 0  9997
2 43633   0.0165 215.9878 0000768  90.7570 272.5169  1.00271691 24074
AEHF-4 (USA 288)        
1 43651U 18079A   25107.52051374 -.00000266  00000+0  00000+0 0  9999
2 43651   1.5252 341.1796 0051029   8.2569 336.2824  1.00275742 24028
BEIDOU-3 G1             
1 43683U 18085A   25107.58436964 -.00000267  00000+0  00000+0 0  9990
2 43683   2.9529  99.6375 0004118   4.8522  91.8753  1.00275732 23798
GSAT-29                 
1 43698U 18089A   25107.54492712  .00000094  00000+0  00000+0 0  9996
2 43698   0.0684  84.1199 0002675 309.7719  63.2703  1.00273360 23534
ES'HAIL 2               
1 43700U 18090A   25107.25347416  .00000155  00000+0  00000+0 0  9998
2 43700   0.0147 247.3731 0002134 180.8546 254.5013  1.00275671 23405
GEO-KOMPSAT-2A          
1 43823U 18100A   25107.55934926 -.00000334  00000+0  00000+0 0  9997
2 43823   0.0498  60.3017 0002382  11.0542 104.2104  1.00271524 23366
GSAT-11                 
1 43824U 18100B   25107.41364101 -.00000068  00000+0  00000+0 0  9999
2 43824   0.0420 258.0224 0007660 170.0438   0.6546  1.00271361 23203
GSAT-7A                 
1 43864U 18105A   25107.54640409  .00000036  00000+0  00000+0 0  9994
2 43864   0.0507  80.6870 0002600 319.6746  65.0316  1.00272081 23188
COSMOS 2533             
1 43867U 18107A   25107.54788105 -.00000029  00000+0  00000+0 0  9998
2 43867   0.0308 106.9908 0000610 352.0238  14.1454  1.00269286 23170
